{
    "links": {
        "self": "http://www.neowsapp.com/rest/v1/neo/3789415?api_key=iIulBulltgU6a56xZRHN4H3l9WmuAYTsLGpBGhQ2"
    },
    "id": "3789415",
    "neo_reference_id": "3789415",
    "name": "(2017 WD)",
    "designation": "2017 WD",
    "nasa_jpl_url": "http://ssd.jpl.nasa.gov/sbdb.cgi?sstr=3789415",
    "absolute_magnitude_h": 28.0,
    "estimated_diameter": {
        "kilometers": {
            "estimated_diameter_min": 0.0066765941,
            "estimated_diameter_max": 0.0149293183
        },
        "meters": {
            "estimated_diameter_min": 6.676594135,
            "estimated_diameter_max": 14.9293183439
        },
        "miles": {
            "estimated_diameter_min": 0.004148642,
            "estimated_diameter_max": 0.0092766455
        },
        "feet": {
            "estimated_diameter_min": 21.9048371017,
            "estimated_diameter_max": 48.9807047955
        }
    },
    "is_potentially_hazardous_asteroid": false,
    "close_approach_data": [
        {
            "close_approach_date": "2017-11-13",
            "close_approach_date_full": "2017-Nov-13 11:50",
            "epoch_date_close_approach": 1510573800000,
            "relative_velocity": {
                "kilometers_per_second": "11.6537531908",
                "kilometers_per_hour": "41953.5114868836",
                "miles_per_hour": "26068.2805125028"
            },
            "miss_distance": {
                "astronomical": "0.0073485835",
                "lunar": "2.8585989815",
                "kilometers": "1099332.439117145",
                "miles": "683093.502200801"
            },
            "orbiting_body": "Moon"
        },
        {
            "close_approach_date": "2017-11-13",
            "close_approach_date_full": "2017-Nov-13 11:52",
            "epoch_date_close_approach": 1510573920000,
            "relative_velocity": {
                "kilometers_per_second": "10.6499552844",
                "kilometers_per_hour": "38339.8390237201",
                "miles_per_hour": "23822.8849755999"
            },
            "miss_distance": {
                "astronomical": "0.0047758931",
                "lunar": "1.8578224159",
                "kilometers": "714463.435107697",
                "miles": "443946.9924803386"
            },
            "orbiting_body": "Earth"
        }
    ],
    "orbital_data": {
        "orbit_id": "2",
        "orbit_determination_date": "2019-07-10 05:35:59",
        "first_observation_date": "2017-11-16",
        "last_observation_date": "2017-11-18",
        "data_arc_in_days": 2,
        "observations_used": 23,
        "orbit_uncertainty": "7",
        "minimum_orbit_intersection": ".000509316",
        "jupiter_tisserand_invariant": "3.577",
        "epoch_osculation": "2459000.5",
        "eccentricity": ".550047246064694",
        "semi_major_axis": "2.057415326895131",
        "inclination": "3.781796176489422",
        "ascending_node_longitude": "230.1169315709338",
        "orbital_period": "1077.907225455059",
        "perihelion_distance": ".9257396923251722",
        "perihelion_argument": "144.5458727572048",
        "aphelion_distance": "3.18909096146509",
        "perihelion_time": "2459120.693518697024",
        "mean_anomaly": "319.857707872158",
        "mean_motion": ".3339805054632778",
        "equinox": "J2000",
        "orbit_class": {
            "orbit_class_type": "APO",
            "orbit_class_description": "Near-Earth asteroid orbits which cross the Earth’s orbit similar to that of 1862 Apollo",
            "orbit_class_range": "a (semi-major axis) > 1.0 AU; q (perihelion) < 1.017 AU"
        }
    },
    "is_sentry_object": false
}